start=new Date('2021-10-01T00:00:00.000Z').valueOf();
sats=[{"CLASSIFICATION_TYPE":"U","GP_ID":"185858486","TIME_SYSTEM":"UTC","RA_OF_ASC_NODE":"215.5336","EPOCH":"2021-09-30T06:05:28.204224","APOAPSIS":"548.394","PERIOD":"95.592","RCS_SIZE":"LARGE","ARG_OF_PERICENTER":"75.5452","SEMIMAJOR_AXIS":"6925.347","FILE":"3136969","LAUNCH_DATE":"2020-03-18","REV_AT_EPOCH":"8556","REF_FRAME":"TEME","MEAN_ANOMALY":"284.5726","MEAN_ELEMENT_THEORY":"SGP4","EPHEMERIS_TYPE":"0","BSTAR":"0.00005180500000","COUNTRY_CODE":"US","ECCENTRICITY":"0.00017070","DECAY_DATE":null,"TLE_LINE1":"1 45403U 20019AV  21273.25379866  .00000490  00000-0  51805-4 0  9995","CENTER_NAME":"EARTH","INCLINATION":"53.0546","MEAN_MOTION_DOT":"0.00000490","OBJECT_TYPE":"PAYLOAD","ELEMENT_SET_NO":"999","MEAN_MOTION_DDOT":"0.0000000000000","OBJECT_NAME":"STARLINK-1259","TLE_LINE2":"2 45403  53.0546 215.5336 0001707  75.5452 284.5726 15.06400437 85567","SITE":"AFETR","MEAN_MOTION":"15.06400437","NORAD_CAT_ID":"45403","OBJECT_ID":"2020-019AV","PERIAPSIS":"546.030"},{"EPHEMERIS_TYPE":"0","MEAN_ELEMENT_THEORY":"SGP4","MEAN_ANOMALY":"290.0639","REF_FRAME":"TEME","REV_AT_EPOCH":"8547","LAUNCH_DATE":"2020-03-18","FILE":"3136969","PERIAPSIS":"545.982","MEAN_MOTION":"15.06394722","OBJECT_ID":"2020-019AW","NORAD_CAT_ID":"45404","TLE_LINE2":"2 45404  53.0533 215.4826 0001802  70.0544 290.0639 15.06394722 85479","SITE":"AFETR","OBJECT_NAME":"STARLINK-1260","MEAN_MOTION_DDOT":"0.0000000000000","ELEMENT_SET_NO":"999","OBJECT_TYPE":"PAYLOAD","MEAN_MOTION_DOT":"0.00000070","INCLINATION":"53.0533","TLE_LINE1":"1 45404U 20019AW  21273.26485772  .00000070  00000-0  23626-4 0  9995","CENTER_NAME":"EARTH","DECAY_DATE":null,"ECCENTRICITY":"0.00018020","COUNTRY_CODE":"US","BSTAR":"0.00002362600000","GP_ID":"185859737","CLASSIFICATION_TYPE":"U","ARG_OF_PERICENTER":"70.0544","SEMIMAJOR_AXIS":"6925.365","RCS_SIZE":"LARGE","PERIOD":"95.592","EPOCH":"2021-09-30T06:21:23.707008","APOAPSIS":"548.478","RA_OF_ASC_NODE":"215.4826","TIME_SYSTEM":"UTC"},{"FILE":"3136969","LAUNCH_DATE":"2020-03-18","REV_AT_EPOCH":"8547","REF_FRAME":"TEME","MEAN_ANOMALY":"294.9902","MEAN_ELEMENT_THEORY":"SGP4","EPHEMERIS_TYPE":"0","BSTAR":"0.00002149000000","COUNTRY_CODE":"US","ECCENTRICITY":"0.00016120","DECAY_DATE":null,"TLE_LINE1":"1 45405U 20019AX  21273.25011712  .00000038  00000-0  21490-4 0  9995","CENTER_NAME":"EARTH","INCLINATION":"53.0551","MEAN_MOTION_DOT":"0.00000038","OBJECT_TYPE":"PAYLOAD","ELEMENT_SET_NO":"999","MEAN_MOTION_DDOT":"0.0000000000000","OBJECT_NAME":"STARLINK-1263","SITE":"AFETR","TLE_LINE2":"2 45405  53.0551 215.5539 0001612  65.1255 294.9902 15.06389988 85479","NORAD_CAT_ID":"45405","MEAN_MOTION":"15.06389988","OBJECT_ID":"2020-019AX","PERIAPSIS":"546.128","GP_ID":"185859488","CLASSIFICATION_TYPE":"U","TIME_SYSTEM":"UTC","RA_OF_ASC_NODE":"215.5539","EPOCH":"2021-09-30T06:00:10.119168","APOAPSIS":"548.361","PERIOD":"95.593","RCS_SIZE":"LARGE","ARG_OF_PERICENTER":"65.1255","SEMIMAJOR_AXIS":"6925.379"},{"GP_ID":"185858736","CLASSIFICATION_TYPE":"U","ARG_OF_PERICENTER":"66.5194","SEMIMAJOR_AXIS":"6925.339","RCS_SIZE":"LARGE","PERIOD":"95.592","EPOCH":"2021-09-30T06:10:46.376544","APOAPSIS":"548.317","RA_OF_ASC_NODE":"215.5083","TIME_SYSTEM":"UTC","EPHEMERIS_TYPE":"0","MEAN_ELEMENT_THEORY":"SGP4","MEAN_ANOMALY":"293.5963","REF_FRAME":"TEME","REV_AT_EPOCH":"8547","LAUNCH_DATE":"2020-03-18","FILE":"3136969","PERIAPSIS":"546.091","NORAD_CAT_ID":"45406","MEAN_MOTION":"15.06403244","OBJECT_ID":"2020-019AY","TLE_LINE2":"2 45406  53.0539 215.5083 0001607  66.5194 293.5963 15.06403244 85475","SITE":"AFETR","OBJECT_NAME":"STARLINK-1265","MEAN_MOTION_DDOT":"0.0000000000000","ELEMENT_SET_NO":"999","OBJECT_TYPE":"PAYLOAD","MEAN_MOTION_DOT":"0.00000252","INCLINATION":"53.0539","TLE_LINE1":"1 45406U 20019AY  21273.25748121  .00000252  00000-0  35812-4 0  9998","DECAY_DATE":null,"CENTER_NAME":"EARTH","ECCENTRICITY":"0.00016070","COUNTRY_CODE":"US","BSTAR":"0.00003581200000"},{"CLASSIFICATION_TYPE":"U","GP_ID":"185867294","EPOCH":"2021-09-30T12:54:05.077728","APOAPSIS":"548.164","PERIOD":"95.590","RCS_SIZE":"LARGE","ARG_OF_PERICENTER":"57.4987","SEMIMAJOR_AXIS":"6925.246","TIME_SYSTEM":"UTC","RA_OF_ASC_NODE":"214.2547","MEAN_ANOMALY":"302.6149","REF_FRAME":"TEME","MEAN_ELEMENT_THEORY":"SGP4","EPHEMERIS_TYPE":"0","LAUNCH_DATE":"2020-03-18","FILE":"3137134","REV_AT_EPOCH":"8551","MEAN_MOTION_DDOT":"0.0000000000000","OBJECT_TYPE":"PAYLOAD","ELEMENT_SET_NO":"999","TLE_LINE2":"2 45407  53.0549 214.2547 0001521  57.4987 302.6149 15.06433511 85515","SITE":"AFETR","OBJECT_NAME":"STARLINK-1275","OBJECT_ID":"2020-019AZ","MEAN_MOTION":"15.06433511","NORAD_CAT_ID":"45407","PERIAPSIS":"546.058","BSTAR":"0.00018585000000","COUNTRY_CODE":"US","ECCENTRICITY":"0.00015210","TLE_LINE1":"1 45407U 20019AZ  21273.53755877  .00002490  00000-0  18585-3 0  9999","DECAY_DATE":null,"CENTER_NAME":"EARTH","MEAN_MOTION_DOT":"0.00002490","INCLINATION":"53.0549"},{"CLASSIFICATION_TYPE":"U","GP_ID":"185859238","TIME_SYSTEM":"UTC","RA_OF_ASC_NODE":"244.2064","PERIOD":"95.592","APOAPSIS":"548.107","EPOCH":"2021-09-30T13:11:24.772128","SEMIMAJOR_AXIS":"6925.342","ARG_OF_PERICENTER":"69.6299","RCS_SIZE":"LARGE","REV_AT_EPOCH":"8510","LAUNCH_DATE":"2020-03-18","FILE":"3136969","MEAN_ANOMALY":"290.4829","REF_FRAME":"TEME","EPHEMERIS_TYPE":"0","MEAN_ELEMENT_THEORY":"SGP4","ECCENTRICITY":"0.00012990","COUNTRY_CODE":"US","BSTAR":"0.00003339600000","INCLINATION":"53.0531","MEAN_MOTION_DOT":"0.00000216","TLE_LINE1":"1 45408U 20019BA  21273.54959227  .00000216  00000-0  33396-4 0  9998","DECAY_DATE":null,"CENTER_NAME":"EARTH","TLE_LINE2":"2 45408  53.0531 244.2064 0001299  69.6299 290.4829 15.06402056 85101","SITE":"AFETR","OBJECT_NAME":"STARLINK-1278","MEAN_MOTION_DDOT":"0.0000000000000","OBJECT_TYPE":"PAYLOAD","ELEMENT_SET_NO":"999","PERIAPSIS":"546.308","OBJECT_ID":"2020-019BA","NORAD_CAT_ID":"45408","MEAN_MOTION":"15.06402056"},{"BSTAR":"0.00001920000000","ECCENTRICITY":"0.00014040","COUNTRY_CODE":"US","DECAY_DATE":null,"TLE_LINE1":"1 45409U 20019BB  21273.27960369  .00000005  00000-0  19200-4 0  9992","CENTER_NAME":"EARTH","INCLINATION":"53.0552","MEAN_MOTION_DOT":"0.00000005","MEAN_MOTION_DDOT":"0.0000000000000","ELEMENT_SET_NO":"999","OBJECT_TYPE":"PAYLOAD","SITE":"AFETR","TLE_LINE2":"2 45409  53.0552 215.4186 0001404  77.1459 282.9687 15.06394849 85489","OBJECT_NAME":"STARLINK-1282","OBJECT_ID":"2020-019BB","NORAD_CAT_ID":"45409","MEAN_MOTION":"15.06394849","PERIAPSIS":"546.257","LAUNCH_DATE":"2020-03-18","FILE":"3136969","REV_AT_EPOCH":"8548","MEAN_ANOMALY":"282.9687","REF_FRAME":"TEME","MEAN_ELEMENT_THEORY":"SGP4","EPHEMERIS_TYPE":"0","TIME_SYSTEM":"UTC","RA_OF_ASC_NODE":"215.4186","APOAPSIS":"548.202","EPOCH":"2021-09-30T06:42:37.758816","PERIOD":"95.592","RCS_SIZE":"LARGE","ARG_OF_PERICENTER":"77.1459","SEMIMAJOR_AXIS":"6925.364","GP_ID":"185859988","CLASSIFICATION_TYPE":"U"},{"RA_OF_ASC_NODE":"173.7731","TIME_SYSTEM":"UTC","ARG_OF_PERICENTER":"27.2145","SEMIMAJOR_AXIS":"6732.995","RCS_SIZE":"LARGE","PERIOD":"91.637","APOAPSIS":"356.237","EPOCH":"2021-09-30T10:37:13.816992","GP_ID":"185858237","CLASSIFICATION_TYPE":"U","MEAN_MOTION_DOT":"0.00009966","INCLINATION":"53.0567","DECAY_DATE":null,"TLE_LINE1":"1 45410U 20019BC  21273.44252103  .00009966  00000-0  81150-4 0  9991","CENTER_NAME":"EARTH","ECCENTRICITY":"0.00020440","COUNTRY_CODE":"US","BSTAR":"0.00008115000000","PERIAPSIS":"353.484","OBJECT_ID":"2020-019BC","MEAN_MOTION":"15.71412805","NORAD_CAT_ID":"45410","OBJECT_NAME":"STARLINK-1285","SITE":"AFETR","TLE_LINE2":"2 45410  53.0567 173.7731 0002044  27.2145 332.8979 15.71412805 86067","ELEMENT_SET_NO":"999","OBJECT_TYPE":"PAYLOAD","MEAN_MOTION_DDOT":"0.0000000000000","REV_AT_EPOCH":"8606","FILE":"3136969","LAUNCH_DATE":"2020-03-18","EPHEMERIS_TYPE":"0","MEAN_ELEMENT_THEORY":"SGP4","REF_FRAME":"TEME","MEAN_ANOMALY":"332.8979"},{"MEAN_MOTION":"15.06404451","NORAD_CAT_ID":"45411","OBJECT_ID":"2020-019BD","PERIAPSIS":"545.977","ELEMENT_SET_NO":"999","OBJECT_TYPE":"PAYLOAD","MEAN_MOTION_DDOT":"0.0000000000000","OBJECT_NAME":"STARLINK-1293","TLE_LINE2":"2 45411  53.0529 214.1530 0001766  63.6506 296.4664 15.06404451 85520","SITE":"AFETR","CENTER_NAME":"EARTH","TLE_LINE1":"1 45411U 20019BD  21273.55972826  .00003986  00000-0  28629-3 0  9992","DECAY_DATE":null,"INCLINATION":"53.0529","MEAN_MOTION_DOT":"0.00003986","BSTAR":"0.00028629000000","ECCENTRICITY":"0.00017660","COUNTRY_CODE":"US","MEAN_ELEMENT_THEORY":"SGP4","EPHEMERIS_TYPE":"0","REF_FRAME":"TEME","MEAN_ANOMALY":"296.4664","FILE":"3137137","LAUNCH_DATE":"2020-03-18","REV_AT_EPOCH":"8552","RCS_SIZE":"LARGE","ARG_OF_PERICENTER":"63.6506","SEMIMAJOR_AXIS":"6925.335","EPOCH":"2021-09-30T13:26:00.521664","APOAPSIS":"548.423","PERIOD":"95.592","RA_OF_ASC_NODE":"214.1530","TIME_SYSTEM":"UTC","GP_ID":"185866831","CLASSIFICATION_TYPE":"U"},{"CLASSIFICATION_TYPE":"U","GP_ID":"185859738","PERIOD":"95.592","APOAPSIS":"548.304","EPOCH":"2021-09-30T06:16:04.586880","SEMIMAJOR_AXIS":"6925.331","ARG_OF_PERICENTER":"63.6450","RCS_SIZE":"LARGE","TIME_SYSTEM":"UTC","RA_OF_ASC_NODE":"215.4994","MEAN_ANOMALY":"296.4703","REF_FRAME":"TEME","EPHEMERIS_TYPE":"0","MEAN_ELEMENT_THEORY":"SGP4","REV_AT_EPOCH":"8547","LAUNCH_DATE":"2020-03-18","FILE":"3136969","TLE_LINE2":"2 45412  53.0551 215.4994 0001601  63.6450 296.4703 15.06405845 85476","SITE":"AFETR","OBJECT_NAME":"STARLINK-1296","MEAN_MOTION_DDOT":"0.0000000000000","ELEMENT_SET_NO":"999","OBJECT_TYPE":"PAYLOAD","PERIAPSIS":"546.087","OBJECT_ID":"2020-019BE","MEAN_MOTION":"15.06405845","NORAD_CAT_ID":"45412","COUNTRY_CODE":"US","ECCENTRICITY":"0.00016010","BSTAR":"0.00004967500000","INCLINATION":"53.0551","MEAN_MOTION_DOT":"0.00000459","TLE_LINE1":"1 45412U 20019BE  21273.26116420  .00000459  00000-0  49675-4 0  9998","CENTER_NAME":"EARTH","DECAY_DATE":null}];
